SL-8 R/B                
1 15483U 85006B   26156.05236413  .00000315  00000+0  11293-3 0  9991
2 15483  74.0451 100.3936 0018448 349.7708  92.1683 14.37829406166588
SL-12 R/B(2)            
1 15772U 85042D   26156.08474800  .00000155  00000+0  91020-4 0  9998
2 15772  71.1085 263.0847 0035620 346.1769 186.8109 14.22003658126810
SL-14 R/B               
1 15945U 85069B   26156.12010286  .00000505  00000+0  54284-4 0  9998
2 15945  82.5262 302.7156 0017237 262.1249  97.8012 14.86505966185822
SL-16 R/B               
1 16182U 85097B   26156.21472927  .00000105  00000+0  76556-4 0  9999
2 16182  71.0037 316.2841 0005790 135.1155  37.1696 14.16611778 99625
SL-14 R/B               
1 16496U 86006B   26156.00602438  .00000655  00000+0  66789-4 0  9994
2 16496  82.5263 177.5764 0075898 344.3750  15.5123 14.86933251162181
COSMOS 1743             
1 16719U 86034A   26156.00896511  .00045922  00000+0  45150-3 0  9994
2 16719  82.5280 341.6708 0003684 328.7367  31.3673 15.65812894193888
SL-14 R/B               
1 16792U 86046B   26156.29903590  .00000392  00000+0  42333-4 0  9998
2 16792  82.4818 357.4101 0021740 300.4287  59.4781 14.85662918139419
SL-14 R/B               
1 16882U 86055B   26156.10028733  .00000456  00000+0  49521-4 0  9992
2 16882  82.5213  44.4964 0020007  46.2597  71.6845 14.85714297132343
AJISAI (EGS)            
1 16908U 86061A   26156.25291110 -.00000092  00000+0  35771-4 0  9994
2 16908  50.0064 184.0941 0011282 150.3602 291.8831 12.44516757478901
SL-14 R/B               
1 17567U 87024B   26156.03132977  .00000429  00000+0  46018-4 0  9996
2 17567  82.5286  10.6774 0017554 336.0820  23.9579 14.86205160101109
COSMOS 1833             
1 17589U 87027A   26156.21558253  .00000268  00000+0  16912-3 0  9992
2 17589  70.9149 142.0326 0022509  75.1038 285.2574 14.13041098 22684
SL-16 R/B               
1 17590U 87027B   26156.07564846  .00000222  00000+0  13370-3 0  9998
2 17590  71.0026  92.3501 0005900 326.7912  33.2841 14.17170338 27728
SL-14 R/B               
1 17912U 87038B   26156.27323145  .00000368  00000+0  39781-4 0  9991
2 17912  82.5018 214.2939 0017994 232.1981 127.7607 14.85437955 92239
COSMOS 1844             
1 17973U 87041A   26155.23720840 -.00000042  00000+0  32059-5 0  9992
2 17973  70.8992 211.6221 0033289 254.1046 105.6406 14.14570107 15824
SL-14 R/B               
1 18153U 87055B   26156.03283264  .00000532  00000+0  58297-4 0  9995
2 18153  82.4994 266.6861 0022172  85.3562 275.0186 14.85702063 82908
COSMOS 1867             
1 18187U 87060A   26156.04728054 -.00000036  00000+0  24156-4 0  9997
2 18187  65.0114  62.0568 0016217 281.9562  77.9705 14.31514431 32446
SL-14 R/B               
1 18749U 88001B   26156.30341701  .00000486  00000+0  53290-4 0  9995
2 18749  82.5123 112.9533 0016814 312.3240  47.6551 14.85600412 55033
COSMOS 1933             
1 18958U 88020A   26156.30930781  .00003697  00000+0  17718-3 0  9991
2 18958  82.5116 164.1971 0002325 239.7169 120.3835 15.18634199 63529
SL-3 R/B                
1 19046U 88032B   26156.26807072  .00004108  00000+0  18854-3 0  9994
2 19046  97.5254 139.3221 0023764 289.8933  69.9742 15.20745257 65410
SL-16 R/B               
1 19120U 88039B   26156.28321623  .00000129  00000+0  83652-4 0  9997
2 19120  71.0150 243.3285 0022918 210.6478 149.3311 14.19628217970814
COSMOS 1953             
1 19210U 88050A   26155.72235272  .00008337  00000+0  28731-3 0  9997
2 19210  82.5084  70.6010 0011083 165.7673 194.3882 15.29797469 51082
SL-8 R/B                
1 19257U 88053B   26154.58928132  .00000307  00000+0  10792-3 0  9995
2 19257  74.0476 314.1234 0019338 114.4979 314.5681 14.38961756988958
COSMOS 1975             
1 19573U 88093A   26155.72190923  .00008614  00000+0  30285-3 0  9994
2 19573  82.5197  30.2392 0010113 216.5991 143.4559 15.29159887 32705
SL-14 R/B               
1 19574U 88093B   26156.23822263  .00000502  00000+0  54800-4 0  9999
2 19574  82.5303 319.8641 0022139 107.2834  65.4061 14.85732263 14012
SL-16 R/B               
1 19650U 88102B   26156.20931695  .00000070  00000+0  59598-4 0  9991
2 19650  71.0003 327.3424 0016144 241.5673 118.3823 14.16166310939289
INTERCOSMOS 24          
1 20261U 89080A   26155.70568575  .00001002  00000+0  28574-3 0  9999
2 20261  82.6076  47.7647 1188298  90.8415 282.8696 12.59641589677754
SL-14 R/B               
1 20262U 89080C   26156.16288379  .00000551  00000+0  16426-3 0  9993
2 20262  82.5914 117.0317 1229462 344.9105  11.8159 12.50562079671089
DELTA 1 R/B             
1 20323U 89089B   26156.28691177  .00000354  00000+0  96245-4 0  9996
2 20323  97.0640 349.7491 0068239 204.6262 155.1673 14.50723064908439
ARIANE 40 R/B           
1 20443U 90005H   26156.09268161  .00000279  00000+0  10201-3 0  9994
2 20443  98.2963 214.0842 0008958 305.8414  54.1942 14.39920855905384
DELTA 2 R/B(1)          
1 20453U 90008B   26154.88182397  .00082628  00000+0  65995-3 0  9997
2 20453  35.6007 324.5326 0068452 348.4901  11.4272 15.66729269939614
