OBJECT_NAME,OBJECT_ID,EPOCH,MEAN_MOTION,ECCENTRICITY,INCLINATION,RA_OF_ASC_NODE,ARG_OF_PERICENTER,MEAN_ANOMALY,EPHEMERIS_TYPE,CLASSIFICATION_TYPE,NORAD_CAT_ID,ELEMENT_SET_NO,REV_AT_EPOCH,BSTAR,MEAN_MOTION_DOT,MEAN_MOTION_DDOT
SL-8 R/B,1985-006B,2026-06-05T01:15:24.260832,14.37829406,.00184485,74.0451,100.3936,349.7708,92.1683,0,U,15483,999,16658,.11293412E-3,.315E-5,0
SL-12 R/B(2),1985-042D,2026-06-05T02:02:02.227200,14.22003658,.00356203,71.1085,263.0847,346.1769,186.8109,0,U,15772,999,12681,.91019988E-4,.155E-5,0
SL-14 R/B,1985-069B,2026-06-05T02:52:56.887104,14.86505966,.00172372,82.5262,302.7156,262.1249,97.8012,0,U,15945,999,18582,.5428378E-4,.505E-5,0
SL-16 R/B,1985-097B,2026-06-05T05:09:12.608928,14.16611778,.00057907,71.0037,316.2841,135.1155,37.1696,0,U,16182,999,9962,.76556389E-4,.105E-5,0
SL-14 R/B,1986-006B,2026-06-05T00:08:40.506432,14.86933251,.00758987,82.5263,177.5764,344.3750,15.5123,0,U,16496,999,16218,.667891E-4,.655E-5,0
COSMOS 1743,1986-034A,2026-06-05T00:12:54.585504,15.65812894,.00036847,82.5280,341.6708,328.7367,31.3673,0,U,16719,999,19388,.45149809E-3,.45922E-3,0
SL-14 R/B,1986-046B,2026-06-05T07:10:36.701760,14.85662918,.00217406,82.4818,357.4101,300.4287,59.4781,0,U,16792,999,13941,.42332596E-4,.392E-5,0
SL-14 R/B,1986-055B,2026-06-05T02:24:24.825312,14.85714297,.00200077,82.5213,44.4964,46.2597,71.6845,0,U,16882,999,13234,.49520539E-4,.456E-5,0
AJISAI (EGS),1986-061A,2026-06-05T06:04:11.519040,12.44516757,.00112827,50.0064,184.0941,150.3602,291.8831,0,U,16908,999,47890,.35770615E-4,-.92E-6,0
SL-14 R/B,1987-024B,2026-06-05T00:45:06.892128,14.86205160,.00175549,82.5286,10.6774,336.0820,23.9579,0,U,17567,999,10110,.46018407E-4,.429E-5,0
COSMOS 1833,1987-027A,2026-06-05T05:10:26.330592,14.13041098,.00225098,70.9149,142.0326,75.1038,285.2574,0,U,17589,999,2268,.16911793E-3,.268E-5,0
SL-16 R/B,1987-027B,2026-06-05T01:48:56.026944,14.17170338,.00059002,71.0026,92.3501,326.7912,33.2841,0,U,17590,999,2772,.13370326E-3,.222E-5,0
SL-14 R/B,1987-038B,2026-06-05T06:33:27.197280,14.85437955,.00179943,82.5018,214.2939,232.1981,127.7607,0,U,17912,999,9223,.39780537E-4,.368E-5,0
COSMOS 1844,1987-041A,2026-06-04T05:41:34.805760,14.14570107,.00332894,70.8992,211.6221,254.1046,105.6406,0,U,17973,999,1582,.3205931E-5,-.42E-6,0
SL-14 R/B,1987-055B,2026-06-05T00:47:16.740096,14.85702063,.00221724,82.4994,266.6861,85.3562,275.0186,0,U,18153,999,8290,.58296854E-4,.532E-5,0
COSMOS 1867,1987-060A,2026-06-05T01:08:05.038656,14.31514431,.0016217,65.0114,62.0568,281.9562,77.9705,0,U,18187,999,3244,.24155648E-4,-.36E-6,0
SL-14 R/B,1988-001B,2026-06-05T07:16:55.229664,14.85600412,.00168148,82.5123,112.9533,312.3240,47.6551,0,U,18749,999,5503,.53290228E-4,.486E-5,0
COSMOS 1933,1988-020A,2026-06-05T07:25:24.194784,15.18634199,.00023258,82.5116,164.1971,239.7169,120.3835,0,U,18958,999,6352,.1771789E-3,.3697E-4,0
SL-3 R/B,1988-032B,2026-06-05T06:26:01.310208,15.20745257,.0023764,97.5254,139.3221,289.8933,69.9742,0,U,19046,999,6541,.18853575E-3,.4108E-4,0
SL-16 R/B,1988-039B,2026-06-05T06:47:49.882272,14.19628217,.00229182,71.0150,243.3285,210.6478,149.3311,0,U,19120,999,97081,.83652433E-4,.129E-5,0
COSMOS 1953,1988-050A,2026-06-04T17:20:11.275008,15.29797469,.0011083,82.5084,70.6010,165.7673,194.3882,0,U,19210,999,5108,.28731E-3,.8337E-4,0
SL-8 R/B,1988-053B,2026-06-03T14:08:33.906048,14.38961756,.00193388,74.0476,314.1234,114.4979,314.5681,0,U,19257,999,98895,.10792196E-3,.307E-5,0
COSMOS 1975,1988-093A,2026-06-04T17:19:32.957472,15.29159887,.00101139,82.5197,30.2392,216.5991,143.4559,0,U,19573,999,3270,.30284775E-3,.8614E-4,0
SL-14 R/B,1988-093B,2026-06-05T05:43:02.435232,14.85732263,.00221398,82.5303,319.8641,107.2834,65.4061,0,U,19574,999,1401,.54800469E-4,.502E-5,0
SL-16 R/B,1988-102B,2026-06-05T05:01:24.984480,14.16166310,.00161449,71.0003,327.3424,241.5673,118.3823,0,U,19650,999,93928,.59597992E-4,.7E-6,0
INTERCOSMOS 24,1989-080A,2026-06-04T16:56:11.248800,12.59641589,.1188298,82.6076,47.7647,90.8415,282.8696,0,U,20261,999,67775,.28574E-3,.1002E-4,0
SL-14 R/B,1989-080C,2026-06-05T03:54:33.159456,12.50562079,.12294629,82.5914,117.0317,344.9105,11.8159,0,U,20262,999,67108,.16426433E-3,.551E-5,0
DELTA 1 R/B,1989-089B,2026-06-05T06:53:09.176928,14.50723064,.00682399,97.0640,349.7491,204.6262,155.1673,0,U,20323,999,90843,.96245284E-4,.354E-5,0
ARIANE 40 R/B,1990-005H,2026-06-05T02:13:27.691104,14.39920855,.00089583,98.2963,214.0842,305.8414,54.1942,0,U,20443,999,90538,.10201178E-3,.279E-5,0
DELTA 2 R/B(1),1990-008B,2026-06-03T21:09:49.591008,15.66729269,.0068452,35.6007,324.5326,348.4901,11.4272,0,U,20453,999,93961,.65995E-3,.82628E-3,0
